IRIDIUM 171             
1 43929U 19002H   23348.51929085  .00000259  00000+0  85363-4 0  9992
2 43929  86.3985  16.4599 0002109  90.5948 269.5489 14.34220336257712
IRIDIUM 170             
1 43930U 19002J   23348.57224733  .00000841  00000+0  12942-3 0  9997
2 43930  86.6103  16.2859 0002540  91.2317 268.9191 14.72243119264541
IRIDIUM 167             
1 43931U 19002K   23349.14086613  .00000197  00000+0  63206-4 0  9999
2 43931  86.3975  16.0094 0002092  88.6870 271.4565 14.34217615257806
IRIDIUM 181             
1 56726U 23068S   23348.75458178  .00000388  00000+0  10889-3 0  9997
2 56726  86.8635  60.9000 0002545  75.0412 285.1071 14.43574228 30382
IRIDIUM 177             
1 56727U 23068T   23349.19949110  .00001139  00000+0  14646-3 0  9998
2 56727  86.1981  43.1771 0002277  95.4039 264.7441 14.80233658 31016
IRIDIUM 174             
1 56728U 23068U   23349.19412380  .00001137  00000+0  14619-3 0  9991
2 56728  86.1989  43.2685 0002073  94.9647 265.1811 14.80213344 31019
IRIDIUM 178             
1 56729U 23068V   23349.18874709  .00001160  00000+0  14927-3 0  9996
2 56729  86.5787  51.9651 0002263  97.9760 262.1719 14.80223073 31013
IRIDIUM 179             
1 56730U 23068W   23348.71008743  .00001202  00000+0  15484-3 0  9999
2 56730  86.6797  53.9675 0002204  99.3170 260.8301 14.80219418 30942
